ONEWEB-0512             
1 54130U 22138T   25033.52403045  .00000047  00000+0  86237-4 0  9995
2 54130  87.9154  44.3132 0001749 105.2494 254.8832 13.19724298111777
ONEWEB-0513             
1 54131U 22138U   25033.49480949 -.00000001  00000+0 -35078-4 0  9999
2 54131  87.9147  44.3079 0001446 105.6513 254.4779 13.19723921110788
ONEWEB-0514             
1 54132U 22138V   25033.08491145 -.00000314  00000+0 -81587-3 0  9997
2 54132  87.9138  44.3767 0001789  88.3442 271.7896 13.19724852110866
ONEWEB-0515             
1 54133U 22138W   25033.42706230  .00000082  00000+0  16854-3 0  9995
2 54133  87.9275  13.8434 0002742  75.5820 284.5617 13.20769701113331
ONEWEB-0516             
1 54134U 22138X   25033.51456146  .00000084  00000+0  17864-3 0  9998
2 54134  87.9154  44.3174 0001995  94.9961 265.1400 13.19724829110925
ONEWEB-0517             
1 54135U 22138Y   25033.49402036  .00000136  00000+0  30744-3 0  9995
2 54135  87.9144  44.2905 0001475  87.3172 272.8129 13.19724487110922
ONEWEB-0518             
1 54136U 22138Z   25033.51297604  .00000133  00000+0  30101-3 0  9996
2 54136  87.9153  44.3141 0001752  90.9861 269.1472 13.19724512110928
ONEWEB-0519             
1 54137U 22138AA  25033.46242899  .00000041  00000+0  69231-4 0  9992
2 54137  87.9140  44.2906 0001563  88.4645 271.6667 13.19723806110924
